[{"OBJECT_NAME":"KAZSTSAT","OBJECT_ID":"2018-099AB","EPOCH":"2026-03-09T14:51:18.118944","MEAN_MOTION":14.99620503,"ECCENTRICITY":0.0006528,"INCLINATION":97.4396,"RA_OF_ASC_NODE":105.0128,"ARG_OF_PERICENTER":11.1145,"MEAN_ANOMALY":349.0222,"EPHEMERIS_TYPE":0,"CLASSIFICATION_TYPE":"U","NORAD_CAT_ID":43783,"ELEMENT_SET_NO":999,"REV_AT_EPOCH":39638,"BSTAR":0.00011446,"MEAN_MOTION_DOT":1.354e-5,"MEAN_MOTION_DDOT":0},{"OBJECT_NAME":"STARLINK-34646","OBJECT_ID":"2025-150G","EPOCH":"2026-03-09T16:00:03.000096","MEAN_MOTION":14.98326066,"ECCENTRICITY":0.00033275,"INCLINATION":70.001,"RA_OF_ASC_NODE":134.5975,"ARG_OF_PERICENTER":275.9537,"MEAN_ANOMALY":355.8693,"EPHEMERIS_TYPE":0,"CLASSIFICATION_TYPE":"U","NORAD_CAT_ID":64796,"ELEMENT_SET_NO":999,"REV_AT_EPOCH":562,"BSTAR":0.0016122573,"MEAN_MOTION_DOT":0.00019195,"MEAN_MOTION_DDOT":0}]
